satname,norad_id,inclination_deg,eccentricity,mean_motion_rev_per_day,perigee_km,apogee_km,l1,l2
STARLINK-1296,45412,53.1562,0.0004832,15.35556482,455.96425532577086,462.5719236042287,1 45412U 20019BE  26126.59806534  .00042616  00000+0  12193-2 0  9991,2 45412  53.1562 219.2244 0004832 327.1625  32.9077 15.35556482338856
STARLINK-1309,45414,53.0609,0.000582,15.65313051,368.40980258720083,376.26735616159294,1 45414U 20019BG  26126.59051341  .00038528  00000+0  38372-3 0  9996,2 45414  53.0609 201.4784 0005820 307.8355  52.2133 15.65313051339073
STARLINK-1316,45415,53.1561,0.000533,15.35894156,454.6220915618851,461.90969704721374,1 45415U 20019BH  26126.96397390  .00052179  00000+0  14725-2 0  9998,2 45415  53.1561 217.5114 0005330 332.0156  28.0560 15.35894156338938
STARLINK-1286,45417,53.046,0.0002783,15.55742774,398.1079821728372,401.88069007452305,1 45417U 20019BK  26126.64512247  .00035655  00000+0  51288-3 0  9991,2 45417  53.0460 211.2523 0002783 308.0888  51.9871 15.55742774339230
STARLINK-1308,45419,53.0486,0.0006726,15.61425842,378.9896863170661,388.0854909737118,1 45419U 20019BM  26126.55388202  .00078553  00000+0  89982-3 0  9991,2 45419  53.0486 231.9435 0006726 293.7379  66.2928 15.61425842338688
STARLINK-1329,45531,53.0413,0.0004856,15.69389278,357.3723379248886,363.91704270252103,1 45531U 20025A   26126.37689080  .00048845  00000+0  41081-3 0  9990,2 45531  53.0413 158.2794 0004856  30.8191 329.3109 15.69389278334484
STARLINK-1338,45532,53.044,0.0004302,15.64863468,370.72684123312683,376.5360628092458,1 45532U 20025B   26126.49224985  .00037474  00000+0  38027-3 0  9995,2 45532  53.0440 163.1883 0004302  10.9496 349.1611 15.64863468334427
STARLINK-1350,45535,53.0703,0.0001254,15.37503977,452.63640447855596,454.3497773053514,1 45535U 20025E   26126.27847642  .00010382  00000+0  28817-3 0  9990,2 45535  53.0703 122.3808 0001254  53.3003 306.8115 15.37503977335015
STARLINK-1362,45538,53.1579,0.0002646,15.34284479,461.2364373228784,464.8567916916754,1 45538U 20025H   26126.58925304 -.00119357  00000+0 -35902-2 0  9995,2 45538  53.1579 191.3431 0002646  43.8621 316.2591 15.34284479334050
STARLINK-1368,45540,53.1563,0.0003696,15.34667929,459.37893434736816,464.4350948829715,1 45540U 20025K   26126.47282823  .00040407  00000+0  11903-2 0  9990,2 45540  53.1563 192.2611 0003696  17.4468 342.6661 15.34667929334021
STARLINK-1371,45542,53.0456,0.0006686,15.56914784,392.0627099061312,401.12187791795077,1 45542U 20025M   26126.38337220  .00070828  00000+0  96408-3 0  9998,2 45542  53.0456 171.7549 0006686   6.7686 353.3414 15.56914784334292
STARLINK-1372,45543,53.1576,0.0003508,15.35197038,457.9363642046228,462.73423637050564,1 45543U 20025N   26126.37733082  .00041674  00000+0  12066-2 0  9998,2 45543  53.1576 192.3283 0003508   6.6673 353.4376 15.35197038333116
STARLINK-1373,45544,53.0457,0.0003958,15.66570782,366.05458049821755,371.39539644829165,1 45544U 20025P   26126.54716644  .00051107  00000+0  48179-3 0  9990,2 45544  53.0457 168.5740 0003958 344.3076  15.7816 15.66570782334354
STARLINK-1327,45555,53.0408,0.0005256,15.64027322,372.4876226638153,379.5876110210411,1 45555U 20025AA  26126.34895444  .00084353  00000+0  87240-3 0  9997,2 45555  53.0408 146.1602 0005256 343.4840  16.6001 15.64027322334646
STARLINK-1356,45564,53.0458,0.0003962,15.53729932,403.15926049657173,408.5348894775907,1 45564U 20025AK  26126.59296670  .00068481  00000+0  10490-2 0  9996,2 45564  53.0458 156.2740 0003962 352.3934   7.7014 15.53729932334527
STARLINK-1357,45565,53.045,0.0007898,15.66034836,364.9343379019292,375.5941124772389,1 45565U 20025AL  26126.38068581  .00045910  00000+0  44254-3 0  9990,2 45565  53.0450 116.3452 0007898  23.1724 336.9646 15.66034836335074
STARLINK-1361,45567,53.0448,0.0002306,15.57284695,393.9574187129065,397.0814290556027,1 45567U 20025AN  26126.94720461  .00070023  00000+0  94097-3 0  9999,2 45567  53.0448 153.2772 0002306 350.6521   9.4446 15.57284695334608
STARLINK-1363,45568,53.033,0.0002456,15.97328655,280.1980265966931,283.4694042121,1 45568U 20025AP  26127.00002315  .00256292  37585-4  57386-3 0  9996,2 45568  53.0330 102.6553 0002456  83.9358 255.7386 15.97328655  6035
STARLINK-1366,45569,53.0338,0.0002371,15.93107974,292.0096682663525,295.17340193769815,1 45569U 20025AQ  26127.00002315  .00198810  26093-4  56119-3 0  9993,2 45569  53.0338 104.3102 0002371  48.0831 142.4516 15.93107974  6039
STARLINK-1376,45570,53.158,0.0005903,15.3547377,455.4773643107201,463.549894643882,1 45570U 20025AR  26126.49158245  .00046140  00000+0  13219-2 0  9997,2 45570  53.1580 168.2738 0005903   9.7068 350.4048 15.35473770334362
STARLINK-1320,45572,53.0446,0.0003345,15.7920384,330.45043768861433,334.9399844378149,1 45572U 20025AT  26127.00002315  .00003722  00000+0  24081-4 0  9993,2 45572  53.0446  55.8067 0003345 177.7052 310.6680 15.79203840  5954
STARLINK-1321,45573,53.0436,0.0005503,15.58493198,388.2916892022713,395.74292103048174,1 45573U 20025AU  26126.46562046  .00069576  00000+0  89324-3 0  9994,2 45573  53.0436 139.7626 0005503  20.6345 339.4888 15.58493198334448
STARLINK-1331,45578,53.0475,0.0007263,15.58052084,388.37699282048743,398.21317506562264,1 45578U 20025AZ  26126.93193113  .00071712  00000+0  93516-3 0  9999,2 45578  53.0475 144.3206 0007263 359.4613   0.6389 15.58052084334738
STARLINK-1333,45580,53.1555,0.0003309,15.32504171,466.0783511258969,470.6093521535122,1 45580U 20025BB  26126.34558883  .00033814  00000+0  10692-2 0  9990,2 45580  53.1555 169.7751 0003309  31.0598 329.0599 15.32504171334337
STARLINK-1335,45581,53.153,0.0004161,15.34065389,460.85106785941935,466.5448429092903,1 45581U 20025BC  26126.40811948  .00038061  00000+0  11437-2 0  9999,2 45581  53.1530 166.5736 0004161  20.5486 339.5683 15.34065389334374
STARLINK-1337,45582,53.047,0.0007744,15.70078833,353.4545136780607,363.8884826800404,1 45582U 20025BD  26126.90258221  .00099873  00000+0  80566-3 0  9992,2 45582  53.0470 136.5509 0007744   8.3527 351.7617 15.70078833334823
STARLINK-1347,45586,53.0389,0.0005113,15.65284984,368.967714535921,375.8708333816721,1 45586U 20025BH  26126.33726204  .00043848  00000+0  43623-3 0  9998,2 45586  53.0389 108.5951 0005113  39.1623 320.9761 15.65284984335169
STARLINK-1364,45589,53.0439,0.0005198,15.59627003,385.2183456985049,392.2531866262061,1 45589U 20025BL  26126.41581544  .00070830  00000+0  87098-3 0  9991,2 45589  53.0439 144.2384 0005198 340.4549  19.6263 15.59627003334673
STARLINK-1365,45590,53.0466,0.0004961,15.54369545,400.6212924856691,407.35051483067946,1 45590U 20025BM  26126.50998916  .00076804  00000+0  11471-2 0  9996,2 45590  53.0466 176.1328 0004961 337.3610  22.7180 15.54369545334254
STARLINK-1443,45660,53.1347,0.0004134,15.30081806,472.734676469694,478.40131976213706,1 45660U 20035D   26126.35137597  .00023480  00000+0  80517-3 0  9998,2 45660  53.1347 157.9455 0004134   0.3363 359.7639 15.30081806327577
STARLINK-1446,45663,53.0229,0.0004579,15.45796374,425.92208349654265,432.1560953592407,1 45663U 20035G   26126.34834345  .00030371  00000+0  62308-3 0  9990,2 45663  53.0229  84.9395 0004579  77.0778 283.0739 15.45796374328585
STARLINK-1448,45665,53.044,0.0007445,15.64733164,368.9793142548069,379.03325560606754,1 45665U 20035J   26126.93735042  .00044379  00000+0  45088-3 0  9990,2 45665  53.0440 129.5730 0007445   1.7060 358.3979 15.64733164328002
STARLINK-1451,45668,53.0507,0.000216,15.12888575,525.9045244552435,528.8877147629137,1 45668U 20035M   26126.93276276  .00016273  00000+0  92873-3 0  9998,2 45668  53.0507 162.4974 0002160  27.0058 333.1046 15.12888575327557
STARLINK-1452,45669,53.0269,0.0001207,15.53577041,405.4732718108844,407.11103300827654,1 45669U 20035N   26126.34926929  .00074460  00000+0  11456-2 0  9990,2 45669  53.0269 105.1985 0001207  35.3000 324.8089 15.53577041328305
STARLINK-1453,45670,53.0408,0.0003417,15.65049847,370.7885078790978,375.402300103985,1 45670U 20035P   26126.91310161  .00048922  00000+0  49049-3 0  9994,2 45670  53.0408  90.0865 0003417  81.1028 279.0373 15.65049847328459
STARLINK-1454,45671,53.0439,0.0004354,15.6228535,378.1144028887229,384.00030933402377,1 45671U 20035Q   26127.00002315  .00135142  00000+0  14837-2 0  9992,2 45671  53.0439 130.1256 0004354 349.5827 159.4975 15.62285350  5801
STARLINK-1456,45673,53.0436,0.0007489,15.60314223,381.68247695440004,391.81492275564415,1 45673U 20035S   26126.26842051  .00078295  00000+0  93580-3 0  9998,2 45673  53.0436 127.9073 0007489  32.3160 327.8310 15.60314223327980
STARLINK-1457,45674,53.0352,0.0001669,16.05471466,258.1876559525235,260.4032309021395,1 45674U 20035T   26126.89781049  .00456802  10878-3  63272-3 0  9994,2 45674  53.0352  86.2668 0001669  93.8272 266.2951 16.05471466328582
STARLINK-1458,45675,53.0476,0.0006528,15.51746699,407.19373506620923,416.05844975966284,1 45675U 20035U   26126.55445476  .00078891  00000+0  12944-2 0  9998,2 45675  53.0476 138.9905 0006528 352.2409   7.8497 15.51746699327814
STARLINK-1460,45676,53.1555,0.0004103,15.32435878,465.7380645089206,471.35645361190564,1 45676U 20035V   26126.57864403  .00036156  00000+0  11445-2 0  9999,2 45676  53.1555 155.8412 0004103  38.6924 321.4371 15.32435878327582
STARLINK-1392,45677,53.154,0.0003283,15.3547724,457.25853062358055,461.7481252629077,1 45677U 20035W   26126.46797541  .00033984  00000+0  97826-3 0  9990,2 45677  53.1540 155.7350 0003283  46.9031 313.2247 15.35477240327613
STARLINK-1394,45679,53.0424,0.0008622,15.60261081,381.06948867510346,392.7351224536187,1 45679U 20035Y   26126.39425095  .00089243  00000+0  10661-2 0  9996,2 45679  53.0424 117.5238 0008622  37.8004 322.3612 15.60261081328134
STARLINK-1402,45685,53.0418,0.0008043,15.53807548,400.16498010794203,411.0773334789592,1 45685U 20035AE  26126.38472021  .00063991  00000+0  97754-3 0  9994,2 45685  53.0418 106.7497 0008043  58.1431 302.0360 15.53807548328296
